OBJECT_NAME,OBJECT_ID,EPOCH,MEAN_MOTION,ECCENTRICITY,INCLINATION,RA_OF_ASC_NODE,ARG_OF_PERICENTER,MEAN_ANOMALY,EPHEMERIS_TYPE,CLASSIFICATION_TYPE,NORAD_CAT_ID,ELEMENT_SET_NO,REV_AT_EPOCH,BSTAR,MEAN_MOTION_DOT,MEAN_MOTION_DDOT
ASTRA 1M,2008-057A,2026-07-02T05:31:05.830176,1.00271567,.00050203,0.3330,82.6809,31.4670,268.2766,0,U,33436,999,4588,0,.131E-5,0
EUTELSAT HOTBIRD 13C,2008-065A,2026-07-02T05:11:15.232992,1.00271128,.00034473,2.9866,79.0220,21.9665,206.7804,0,U,33459,999,4749,0,-.274E-5,0
EXPRESS-AM44,2009-007A,2026-07-02T07:05:08.071584,1.00272107,.00042871,3.5008,78.2175,14.0514,283.3398,0,U,33595,999,5243,0,-.81E-6,0
NSS-9,2009-008A,2026-07-02T07:43:36.631200,1.00272257,.00023653,1.2986,82.5236,10.6621,126.1474,0,U,33749,999,6367,0,.81E-6,0
TELSTAR 11N,2009-009A,2026-07-02T06:14:21.948000,1.00273083,.00026986,0.0170,37.8708,59.9370,238.5301,0,U,34111,999,4639,0,-.24E-5,0
WGS F2 (USA 204),2009-017A,2026-07-02T00:34:06.513600,1.00272907,.00004872,0.0179,16.3369,121.6446,208.1363,0,U,34713,999,4576,0,.78E-6,0
SES-7 (PROTOSTAR 2),2009-027A,2026-07-02T00:48:35.125632,1.00270494,.00010588,0.0229,54.4958,120.5098,225.4567,0,U,34941,999,6277,0,-.334E-5,0
MEASAT-3A,2009-032A,2026-07-02T03:38:38.931936,1.00271761,.00032148,0.0241,342.2687,111.2548,41.3443,0,U,35362,999,818,0,-.1E-5,0
GOES 14,2009-033A,2026-07-02T06:03:35.471232,1.00105646,.00022338,1.7267,82.8720,25.8305,35.4771,0,U,35491,999,674,0,-.328E-5,0
FM-5,2009-034A,2026-07-01T23:53:03.512256,1.00269985,.00008213,0.0325,279.2453,69.5542,203.3357,0,U,35493,999,4679,0,-.189E-5,0
TERRESTAR-1,2009-035A,2026-07-02T06:27:02.680992,1.00272573,.00026597,5.1831,48.7876,43.0788,174.1886,0,U,35496,999,6228,0,-.48E-6,0
ASIASAT 5,2009-042A,2026-06-30T17:22:21.775296,1.00272017,.00013793,0.0229,61.4701,12.3658,206.0491,0,U,35696,999,6184,0,-.297E-5,0
JCSAT-12 (JCSAT-RA),2009-044A,2026-07-02T06:03:20.494656,1.00272220,.00006629,0.0316,290.7267,248.3230,324.1189,0,U,35755,999,6176,0,-.317E-5,0
OPTUS D3,2009-044B,2026-07-02T03:38:38.931936,1.00272143,.00033799,0.8805,268.5458,192.6644,29.7835,0,U,35756,999,6171,0,-.135E-5,0
NIMIQ 5,2009-050A,2026-07-02T05:04:53.343264,1.00270473,.00029785,0.0261,284.2183,169.1276,190.4245,0,U,35873,999,6149,0,-.246E-5,0
AMAZONAS 2,2009-054A,2026-07-02T07:25:29.578368,1.00268963,.00035317,1.8525,82.8690,22.6007,214.2267,0,U,35942,999,6133,0,-.249E-5,0
COMSATBW-1,2009-054B,2026-07-02T04:00:45.940032,1.00272599,.00031369,0.0682,124.1393,339.0778,300.1987,0,U,35943,999,6145,0,.35E-6,0
NSS-12,2009-058A,2026-07-02T05:41:57.289632,1.00272110,.00048444,0.0648,276.8658,152.1121,353.7828,0,U,36032,999,6106,0,.82E-6,0
THOR 6,2009-058B,2026-07-02T05:25:21.381024,1.00269461,.00022191,0.0186,63.6208,60.3384,236.8084,0,U,36033,999,6115,0,0,0
INTELSAT 14 (IS-14),2009-064A,2026-07-02T05:12:45.088992,1.00269734,.00027292,0.0232,295.0890,169.1235,209.2257,0,U,36097,999,6075,0,-.263E-5,0
EUTELSAT 36B,2009-065A,2026-07-02T05:40:04.968768,1.00269124,.00061204,0.5266,81.2683,19.2109,315.3256,0,U,36101,999,6085,0,.123E-5,0
INTELSAT 15 (IS-15),2009-067A,2026-07-02T02:24:35.748000,1.00273013,.00025256,0.0155,340.3028,120.2608,300.8727,0,U,36106,999,4137,0,-.175E-5,0
WGS F3 (USA 211),2009-068A,2026-07-01T23:40:34.709376,1.00270019,.00006756,0.3105,85.7229,23.1617,36.3038,0,U,36108,999,4674,0,.75E-6,0
DIRECTV 12,2009-075A,2026-07-02T04:02:38.683392,1.00271972,.00003283,0.0104,130.9176,357.6700,109.5616,0,U,36131,999,4670,0,-.93E-6,0
BEIDOU-2 G1,2010-001A,2026-07-01T21:32:28.838400,1.00271683,.00021221,4.3264,60.3629,308.7724,14.4142,0,U,36287,999,6031,0,-.272E-5,0
SDO,2010-005A,2026-06-30T05:53:38.601888,1.00270579,.00014936,34.6771,86.1450,51.4419,126.9147,0,U,36395,999,6019,0,-.9E-6,0
INTELSAT 16 (IS-16),2010-006A,2026-07-02T05:03:53.438688,1.00272733,.0002472,0.0068,36.4040,80.5809,163.0428,0,U,36397,999,5980,0,-.234E-5,0
EWS-G2 (GOES 15),2010-008A,2026-07-02T04:01:00.915744,1.00268370,.00053985,1.3165,82.6452,45.6656,275.6345,0,U,36411,999,5978,0,.31E-6,0
ECHOSTAR 14,2010-010A,2026-07-02T03:54:38.739168,1.00271288,.0002257,0.0176,341.1704,110.0881,128.7079,0,U,36499,999,4670,0,.11E-6,0
SES-1,2010-016A,2026-07-02T04:02:38.683392,1.00269833,.0002937,0.0465,283.9139,174.6379,141.3226,0,U,36516,999,5918,0,-.104E-5,0
ASTRA 3B,2010-021A,2026-07-02T05:32:20.711328,1.00271037,.00042201,1.5077,83.3748,14.0596,289.4025,0,U,36581,999,5901,0,.146E-5,0
COMSATBW-2,2010-021B,2026-07-02T05:29:20.997600,1.00270321,.0002623,0.0475,172.4625,298.0010,265.3637,0,U,36582,999,5910,0,.99E-6,0
