ASTRA 1M                
1 33436U 08057A   26183.22992859  .00000131  00000+0  00000+0 0  9998
2 33436   0.3330  82.6809 0005020  31.4670 268.2766  1.00271567 45882
EUTELSAT HOTBIRD 13C    
1 33459U 08065A   26183.21614853 -.00000274  00000+0  00000+0 0  9995
2 33459   2.9866  79.0220 0003447  21.9665 206.7804  1.00271128 47497
EXPRESS-AM44            
1 33595U 09007A   26183.29523231 -.00000081  00000+0  00000+0 0  9996
2 33595   3.5008  78.2175 0004287  14.0514 283.3398  1.00272107 52439
NSS-9                   
1 33749U 09008A   26183.32195175  .00000081  00000+0  00000+0 0  9993
2 33749   1.2986  82.5236 0002365  10.6621 126.1474  1.00272257 63675
TELSTAR 11N             
1 34111U 09009A   26183.25997625 -.00000240  00000+0  00000+0 0  9998
2 34111   0.0170  37.8708 0002698  59.9370 238.5301  1.00273083 46399
WGS F2 (USA 204)        
1 34713U 09017A   26183.02368650  .00000078  00000+0  00000+0 0  9998
2 34713   0.0179  16.3369 0000487 121.6446 208.1363  1.00272907 45761
SES-7 (PROTOSTAR 2)     
1 34941U 09027A   26183.03373988 -.00000334  00000+0  00000+0 0  9999
2 34941   0.0229  54.4958 0001058 120.5098 225.4567  1.00270494 62770
MEASAT-3A               
1 35362U 09032A   26183.15183949 -.00000100  00000+0  00000+0 0  9993
2 35362   0.0241 342.2687 0003214 111.2548  41.3443  1.00271761  8183
GOES 14                 
1 35491U 09033A   26183.25249388 -.00000328  00000+0  00000+0 0  9990
2 35491   1.7267  82.8720 0002233  25.8305  35.4771  1.00105646  6744
FM-5                    
1 35493U 09034A   26182.99517954 -.00000189  00000+0  00000+0 0  9995
2 35493   0.0325 279.2453 0000821  69.5542 203.3357  1.00269985 46799
TERRESTAR-1             
1 35496U 09035A   26183.26878103 -.00000048  00000+0  00000+0 0  9990
2 35496   5.1831  48.7876 0002659  43.0788 174.1886  1.00272573 62289
ASIASAT 5               
1 35696U 09042A   26181.72386314 -.00000297  00000+0  00000+0 0  9993
2 35696   0.0229  61.4701 0001379  12.3658 206.0491  1.00272017 61849
JCSAT-12 (JCSAT-RA)     
1 35755U 09044A   26183.25232054 -.00000317  00000+0  00000+0 0  9995
2 35755   0.0316 290.7267 0000662 248.3230 324.1189  1.00272220 61760
OPTUS D3                
1 35756U 09044B   26183.15183949 -.00000135  00000+0  00000+0 0  9991
2 35756   0.8805 268.5458 0003379 192.6644  29.7835  1.00272143 61710
NIMIQ 5                 
1 35873U 09050A   26183.21172851 -.00000246  00000+0  00000+0 0  9998
2 35873   0.0261 284.2183 0002978 169.1276 190.4245  1.00270473 61492
AMAZONAS 2              
1 35942U 09054A   26183.30937012 -.00000249  00000+0  00000+0 0  9990
2 35942   1.8525  82.8690 0003531  22.6007 214.2267  1.00268963 61330
COMSATBW-1              
1 35943U 09054B   26183.16719838  .00000035  00000+0  00000+0 0  9991
2 35943   0.0682 124.1393 0003136 339.0778 300.1987  1.00272599 61454
NSS-12                  
1 36032U 09058A   26183.23746863  .00000082  00000+0  00000+0 0  9993
2 36032   0.0648 276.8658 0004844 152.1121 353.7828  1.00272110 61062
THOR 6                  
1 36033U 09058B   26183.22594191  .00000000  00000+0  00000+0 0  9998
2 36033   0.0186  63.6208 0002219  60.3384 236.8084  1.00269461 61158
INTELSAT 14 (IS-14)     
1 36097U 09064A   26183.21718853 -.00000263  00000+0  00000+0 0  9999
2 36097   0.0232 295.0890 0002729 169.1235 209.2257  1.00269734 60751
EUTELSAT 36B            
1 36101U 09065A   26183.23616862  .00000123  00000+0  00000+0 0  9999
2 36101   0.5266  81.2683 0006120  19.2109 315.3256  1.00269124 60850
INTELSAT 15 (IS-15)     
1 36106U 09067A   26183.10041375 -.00000175  00000+0  00000+0 0  9991
2 36106   0.0155 340.3028 0002525 120.2608 300.8727  1.00273013 41371
WGS F3 (USA 211)        
1 36108U 09068A   26182.98651284  .00000075  00000+0  00000+0 0  9993
2 36108   0.3105  85.7229 0000675  23.1617  36.3038  1.00270019 46744
DIRECTV 12              
1 36131U 09075A   26183.16850328 -.00000093  00000+0  00000+0 0  9999
2 36131   0.0104 130.9176 0000328 357.6700 109.5616  1.00271972 46703
BEIDOU-2 G1             
1 36287U 10001A   26182.89755600 -.00000272  00000+0  00000+0 0  9997
2 36287   4.3264  60.3629 0002122 308.7724  14.4142  1.00271683 60315
SDO                     
1 36395U 10005A   26181.24558567 -.00000090  00000+0  00000+0 0  9990
2 36395  34.6771  86.1450 0001493  51.4419 126.9147  1.00270579 60198
INTELSAT 16 (IS-16)     
1 36397U 10006A   26183.21103517 -.00000234  00000+0  00000+0 0  9993
2 36397   0.0068  36.4040 0002472  80.5809 163.0428  1.00272733 59807
EWS-G2 (GOES 15)        
1 36411U 10008A   26183.16737171  .00000031  00000+0  00000+0 0  9999
2 36411   1.3165  82.6452 0005398  45.6656 275.6345  1.00268370 59785
ECHOSTAR 14             
1 36499U 10010A   26183.16294837  .00000011  00000+0  00000+0 0  9993
2 36499   0.0176 341.1704 0002257 110.0881 128.7079  1.00271288 46702
SES-1                   
1 36516U 10016A   26183.16850328 -.00000104  00000+0  00000+0 0  9996
2 36516   0.0465 283.9139 0002937 174.6379 141.3226  1.00269833 59185
ASTRA 3B                
1 36581U 10021A   26183.23079527  .00000146  00000+0  00000+0 0  9991
2 36581   1.5077  83.3748 0004220  14.0596 289.4025  1.00271037 59017
COMSATBW-2              
1 36582U 10021B   26183.22871525  .00000099  00000+0  00000+0 0  9996
2 36582   0.0475 172.4625 0002623 298.0010 265.3637  1.00270321 59105
